<?xml version="1.0" encoding="UTF-8"?>
<ndm xmlns:xsi="http://www.w3.org/2001/XMLSchema-instance" xsi:noNamespaceSchemaLocation="https://sanaregistry.org/r/ndmxml_unqualified/ndmxml-2.0.0-master-2.0.xsd">
<omm id="CCSDS_OMM_VERS" version="2.0">
<header><CREATION_DATE/><ORIGINATOR/></header><body><segment><metadata><OBJECT_NAME>ORBCOMM FM103</OBJECT_NAME><OBJECT_ID>2014-040F</OBJECT_ID><CENTER_NAME>EARTH</CENTER_NAME><REF_FRAME>TEME</REF_FRAME><TIME_SYSTEM>UTC</TIME_SYSTEM><MEAN_ELEMENT_THEORY>SGP4</MEAN_ELEMENT_THEORY></metadata><data><meanElements><EPOCH>2024-12-27T14:04:33.057408</EPOCH><MEAN_MOTION>14.57608494</MEAN_MOTION><ECCENTRICITY>.0002832</ECCENTRICITY><INCLINATION>47.0044</INCLINATION><RA_OF_ASC_NODE>107.9047</RA_OF_ASC_NODE><ARG_OF_PERICENTER>230.0373</ARG_OF_PERICENTER><MEAN_ANOMALY>130.0264</MEAN_ANOMALY></meanElements><tleParameters><EPHEMERIS_TYPE>0</EPHEMERIS_TYPE><CLASSIFICATION_TYPE>U</CLASSIFICATION_TYPE><NORAD_CAT_ID>40091</NORAD_CAT_ID><ELEMENT_SET_NO>999</ELEMENT_SET_NO><REV_AT_EPOCH>53906</REV_AT_EPOCH><BSTAR>.55205E-3</BSTAR><MEAN_MOTION_DOT>.2371E-4</MEAN_MOTION_DOT><MEAN_MOTION_DDOT>0</MEAN_MOTION_DDOT></tleParameters></data></segment></body></omm>
<omm id="CCSDS_OMM_VERS" version="2.0">
<header><CREATION_DATE/><ORIGINATOR/></header><body><segment><metadata><OBJECT_NAME>ORBCOMM FM114</OBJECT_NAME><OBJECT_ID>2015-081A</OBJECT_ID><CENTER_NAME>EARTH</CENTER_NAME><REF_FRAME>TEME</REF_FRAME><TIME_SYSTEM>UTC</TIME_SYSTEM><MEAN_ELEMENT_THEORY>SGP4</MEAN_ELEMENT_THEORY></metadata><data><meanElements><EPOCH>2024-12-27T13:06:01.772640</EPOCH><MEAN_MOTION>14.57670131</MEAN_MOTION><ECCENTRICITY>.0003182</ECCENTRICITY><INCLINATION>47.0032</INCLINATION><RA_OF_ASC_NODE>17.2573</RA_OF_ASC_NODE><ARG_OF_PERICENTER>286.0976</ARG_OF_PERICENTER><MEAN_ANOMALY>73.9559</MEAN_ANOMALY></meanElements><tleParameters><EPHEMERIS_TYPE>0</EPHEMERIS_TYPE><CLASSIFICATION_TYPE>U</CLASSIFICATION_TYPE><NORAD_CAT_ID>41179</NORAD_CAT_ID><ELEMENT_SET_NO>999</ELEMENT_SET_NO><REV_AT_EPOCH>47942</REV_AT_EPOCH><BSTAR>.53161E-3</BSTAR><MEAN_MOTION_DOT>.228E-4</MEAN_MOTION_DOT><MEAN_MOTION_DDOT>0</MEAN_MOTION_DDOT></tleParameters></data></segment></body></omm>
<omm id="CCSDS_OMM_VERS" version="2.0">
<header><CREATION_DATE/><ORIGINATOR/></header><body><segment><metadata><OBJECT_NAME>ORBCOMM FM119</OBJECT_NAME><OBJECT_ID>2015-081B</OBJECT_ID><CENTER_NAME>EARTH</CENTER_NAME><REF_FRAME>TEME</REF_FRAME><TIME_SYSTEM>UTC</TIME_SYSTEM><MEAN_ELEMENT_THEORY>SGP4</MEAN_ELEMENT_THEORY></metadata><data><meanElements><EPOCH>2024-12-27T12:35:34.442880</EPOCH><MEAN_MOTION>14.57587858</MEAN_MOTION><ECCENTRICITY>.0001511</ECCENTRICITY><INCLINATION>47.0004</INCLINATION><RA_OF_ASC_NODE>286.6016</RA_OF_ASC_NODE><ARG_OF_PERICENTER>335.9121</ARG_OF_PERICENTER><MEAN_ANOMALY>24.1693</MEAN_ANOMALY></meanElements><tleParameters><EPHEMERIS_TYPE>0</EPHEMERIS_TYPE><CLASSIFICATION_TYPE>U</CLASSIFICATION_TYPE><NORAD_CAT_ID>41180</NORAD_CAT_ID><ELEMENT_SET_NO>999</ELEMENT_SET_NO><REV_AT_EPOCH>48067</REV_AT_EPOCH><BSTAR>.50851E-3</BSTAR><MEAN_MOTION_DOT>.2169E-4</MEAN_MOTION_DOT><MEAN_MOTION_DDOT>0</MEAN_MOTION_DDOT></tleParameters></data></segment></body></omm>
<omm id="CCSDS_OMM_VERS" version="2.0">
<header><CREATION_DATE/><ORIGINATOR/></header><body><segment><metadata><OBJECT_NAME>ORBCOMM FM105</OBJECT_NAME><OBJECT_ID>2015-081C</OBJECT_ID><CENTER_NAME>EARTH</CENTER_NAME><REF_FRAME>TEME</REF_FRAME><TIME_SYSTEM>UTC</TIME_SYSTEM><MEAN_ELEMENT_THEORY>SGP4</MEAN_ELEMENT_THEORY></metadata><data><meanElements><EPOCH>2024-12-27T11:29:10.816224</EPOCH><MEAN_MOTION>14.44929444</MEAN_MOTION><ECCENTRICITY>.0002171</ECCENTRICITY><INCLINATION>47.0018</INCLINATION><RA_OF_ASC_NODE>275.2314</RA_OF_ASC_NODE><ARG_OF_PERICENTER>276.4321</ARG_OF_PERICENTER><MEAN_ANOMALY>83.6311</MEAN_ANOMALY></meanElements><tleParameters><EPHEMERIS_TYPE>0</EPHEMERIS_TYPE><CLASSIFICATION_TYPE>U</CLASSIFICATION_TYPE><NORAD_CAT_ID>41181</NORAD_CAT_ID><ELEMENT_SET_NO>999</ELEMENT_SET_NO><REV_AT_EPOCH>47591</REV_AT_EPOCH><BSTAR>.34006E-3</BSTAR><MEAN_MOTION_DOT>.1038E-4</MEAN_MOTION_DOT><MEAN_MOTION_DDOT>0</MEAN_MOTION_DDOT></tleParameters></data></segment></body></omm>
<omm id="CCSDS_OMM_VERS" version="2.0">
<header><CREATION_DATE/><ORIGINATOR/></header><body><segment><metadata><OBJECT_NAME>ORBCOMM FM110</OBJECT_NAME><OBJECT_ID>2015-081D</OBJECT_ID><CENTER_NAME>EARTH</CENTER_NAME><REF_FRAME>TEME</REF_FRAME><TIME_SYSTEM>UTC</TIME_SYSTEM><MEAN_ELEMENT_THEORY>SGP4</MEAN_ELEMENT_THEORY></metadata><data><meanElements><EPOCH>2024-12-27T12:31:13.510560</EPOCH><MEAN_MOTION>14.57701232</MEAN_MOTION><ECCENTRICITY>.0000973</ECCENTRICITY><INCLINATION>47.0023</INCLINATION><RA_OF_ASC_NODE>16.7454</RA_OF_ASC_NODE><ARG_OF_PERICENTER>21.0348</ARG_OF_PERICENTER><MEAN_ANOMALY>339.0577</MEAN_ANOMALY></meanElements><tleParameters><EPHEMERIS_TYPE>0</EPHEMERIS_TYPE><CLASSIFICATION_TYPE>U</CLASSIFICATION_TYPE><NORAD_CAT_ID>41182</NORAD_CAT_ID><ELEMENT_SET_NO>999</ELEMENT_SET_NO><REV_AT_EPOCH>47929</REV_AT_EPOCH><BSTAR>.68422E-3</BSTAR><MEAN_MOTION_DOT>.2986E-4</MEAN_MOTION_DOT><MEAN_MOTION_DDOT>0</MEAN_MOTION_DDOT></tleParameters></data></segment></body></omm>
<omm id="CCSDS_OMM_VERS" version="2.0">
<header><CREATION_DATE/><ORIGINATOR/></header><body><segment><metadata><OBJECT_NAME>ORBCOMM FM118</OBJECT_NAME><OBJECT_ID>2015-081E</OBJECT_ID><CENTER_NAME>EARTH</CENTER_NAME><REF_FRAME>TEME</REF_FRAME><TIME_SYSTEM>UTC</TIME_SYSTEM><MEAN_ELEMENT_THEORY>SGP4</MEAN_ELEMENT_THEORY></metadata><data><meanElements><EPOCH>2024-12-27T12:03:01.870272</EPOCH><MEAN_MOTION>14.57627145</MEAN_MOTION><ECCENTRICITY>.0001373</ECCENTRICITY><INCLINATION>47.0048</INCLINATION><RA_OF_ASC_NODE>17.2254</RA_OF_ASC_NODE><ARG_OF_PERICENTER>33.3824</ARG_OF_PERICENTER><MEAN_ANOMALY>326.7148</MEAN_ANOMALY></meanElements><tleParameters><EPHEMERIS_TYPE>0</EPHEMERIS_TYPE><CLASSIFICATION_TYPE>U</CLASSIFICATION_TYPE><NORAD_CAT_ID>41183</NORAD_CAT_ID><ELEMENT_SET_NO>999</ELEMENT_SET_NO><REV_AT_EPOCH>47939</REV_AT_EPOCH><BSTAR>.67351E-3</BSTAR><MEAN_MOTION_DOT>.2931E-4</MEAN_MOTION_DOT><MEAN_MOTION_DDOT>0</MEAN_MOTION_DDOT></tleParameters></data></segment></body></omm>
<omm id="CCSDS_OMM_VERS" version="2.0">
<header><CREATION_DATE/><ORIGINATOR/></header><body><segment><metadata><OBJECT_NAME>ORBCOMM FM112</OBJECT_NAME><OBJECT_ID>2015-081F</OBJECT_ID><CENTER_NAME>EARTH</CENTER_NAME><REF_FRAME>TEME</REF_FRAME><TIME_SYSTEM>UTC</TIME_SYSTEM><MEAN_ELEMENT_THEORY>SGP4</MEAN_ELEMENT_THEORY></metadata><data><meanElements><EPOCH>2024-12-27T12:02:05.463168</EPOCH><MEAN_MOTION>14.57629188</MEAN_MOTION><ECCENTRICITY>.0001654</ECCENTRICITY><INCLINATION>46.9987</INCLINATION><RA_OF_ASC_NODE>285.8892</RA_OF_ASC_NODE><ARG_OF_PERICENTER>318.5849</ARG_OF_PERICENTER><MEAN_ANOMALY>41.4911</MEAN_ANOMALY></meanElements><tleParameters><EPHEMERIS_TYPE>0</EPHEMERIS_TYPE><CLASSIFICATION_TYPE>U</CLASSIFICATION_TYPE><NORAD_CAT_ID>41184</NORAD_CAT_ID><ELEMENT_SET_NO>999</ELEMENT_SET_NO><REV_AT_EPOCH>48061</REV_AT_EPOCH><BSTAR>.72472E-3</BSTAR><MEAN_MOTION_DOT>.3167E-4</MEAN_MOTION_DOT><MEAN_MOTION_DDOT>0</MEAN_MOTION_DDOT></tleParameters></data></segment></body></omm>
<omm id="CCSDS_OMM_VERS" version="2.0">
<header><CREATION_DATE/><ORIGINATOR/></header><body><segment><metadata><OBJECT_NAME>ORBCOMM FM113</OBJECT_NAME><OBJECT_ID>2015-081G</OBJECT_ID><CENTER_NAME>EARTH</CENTER_NAME><REF_FRAME>TEME</REF_FRAME><TIME_SYSTEM>UTC</TIME_SYSTEM><MEAN_ELEMENT_THEORY>SGP4</MEAN_ELEMENT_THEORY></metadata><data><meanElements><EPOCH>2024-12-27T11:29:33.450432</EPOCH><MEAN_MOTION>14.57629728</MEAN_MOTION><ECCENTRICITY>.0001465</ECCENTRICITY><INCLINATION>47.0003</INCLINATION><RA_OF_ASC_NODE>286.3010</RA_OF_ASC_NODE><ARG_OF_PERICENTER>341.7097</ARG_OF_PERICENTER><MEAN_ANOMALY>18.3735</MEAN_ANOMALY></meanElements><tleParameters><EPHEMERIS_TYPE>0</EPHEMERIS_TYPE><CLASSIFICATION_TYPE>U</CLASSIFICATION_TYPE><NORAD_CAT_ID>41185</NORAD_CAT_ID><ELEMENT_SET_NO>999</ELEMENT_SET_NO><REV_AT_EPOCH>48059</REV_AT_EPOCH><BSTAR>.70634E-3</BSTAR><MEAN_MOTION_DOT>.3083E-4</MEAN_MOTION_DOT><MEAN_MOTION_DDOT>0</MEAN_MOTION_DDOT></tleParameters></data></segment></body></omm>

</ndm>
