ORBCOMM FM103           
1 40091U 14040F   24362.58649372  .00002371  00000+0  55205-3 0  9996
2 40091  47.0044 107.9047 0002832 230.0373 130.0264 14.57608494539063
ORBCOMM FM114           
1 41179U 15081A   24362.54585385  .00002280  00000+0  53161-3 0  9997
2 41179  47.0032  17.2573 0003182 286.0976  73.9559 14.57670131479426
ORBCOMM FM119           
1 41180U 15081B   24362.52470420  .00002169  00000+0  50851-3 0  9999
2 41180  47.0004 286.6016 0001511 335.9121  24.1693 14.57587858480670
ORBCOMM FM105           
1 41181U 15081C   24362.47859741  .00001038  00000+0  34006-3 0  9999
2 41181  47.0018 275.2314 0002171 276.4321  83.6311 14.44929444475910
ORBCOMM FM110           
1 41182U 15081D   24362.52168415  .00002986  00000+0  68422-3 0  9999
2 41182  47.0023  16.7454 0000973  21.0348 339.0577 14.57701232479295
ORBCOMM FM118           
1 41183U 15081E   24362.50210498  .00002931  00000+0  67351-3 0  9997
2 41183  47.0048  17.2254 0001373  33.3824 326.7148 14.57627145479395
ORBCOMM FM112           
1 41184U 15081F   24362.50145212  .00003167  00000+0  72472-3 0  9991
2 41184  46.9987 285.8892 0001654 318.5849  41.4911 14.57629188480619
ORBCOMM FM113           
1 41185U 15081G   24362.47885938  .00003083  00000+0  70634-3 0  9999
2 41185  47.0003 286.3010 0001465 341.7097  18.3735 14.57629728480596
